{"type": "FeatureCollection", "features": [ {"type": "Feature", "properties": {"norad_id": 33867, "name": "IRIDIUM 33 DEB", "group": "iridium-33-debris", "lat": -35.553598845893106, "lon": 166.59843644490692, "alt_km": 236.33296711165895, "timestamp": "2025-12-24T05:51:19.993971+00:00", "meta": {"OBJECT_NAME": "IRIDIUM 33 DEB", "OBJECT_ID": "1997-051AL", "EPOCH": "2025-12-23T20:01:30.593568", "MEAN_MOTION": 16.07905619, "ECCENTRICITY": 0.00123823, "INCLINATION": 86.3716, "RA_OF_ASC_NODE": 344.225, "ARG_OF_PERICENTER": 111.097, "MEAN_ANOMALY": 249.1645, "EPHEMERIS_TYPE": 0, "CLASSIFICATION_TYPE": "U", "NORAD_CAT_ID": 33867, "ELEMENT_SET_NO": 999, "REV_AT_EPOCH": 89686, "BSTAR": 0.010041813, "MEAN_MOTION_DOT": 0.05649041, "MEAN_MOTION_DDOT": 0.086118142}, "tle": {"line1": "1 33867U 97051AL  25357.83438187  .05649041  86118-1  10042-1 0  9995", "line2": "2 33867  86.3716 344.2250 0012382 111.0970 249.1645 16.07905619896867"}}, "geometry": {"type": "Point", "coordinates": [166.59843644490692, -35.553598845893106]}}, {"type": "Feature", "properties": {"norad_id": 33870, "name": "IRIDIUM 33 DEB", "group": "iridium-33-debris", "lat": 49.06783343919732, "lon": 57.523252330712566, "alt_km": 735.2612775440266, "timestamp": "2025-12-24T05:51:19.993982+00:00", "meta": {"OBJECT_NAME": "IRIDIUM 33 DEB", "OBJECT_ID": "1997-051AP", "EPOCH": "2025-12-23T04:59:30.895872", "MEAN_MOTION": 14.45900909, "ECCENTRICITY": 0.00225031, "INCLINATION": 86.3735, "RA_OF_ASC_NODE": 53.7735, "ARG_OF_PERICENTER": 144.8377, "MEAN_ANOMALY": 275.5744, "EPHEMERIS_TYPE": 0, "CLASSIFICATION_TYPE": "U", "NORAD_CAT_ID": 33870, "ELEMENT_SET_NO": 999, "REV_AT_EPOCH": 88288, "BSTAR": 0.00068782741, "MEAN_MOTION_DOT": 2.471e-05, "MEAN_MOTION_DDOT": 0}, "tle": {"line1": "1 33870U 97051AP  25357.20799648  .00002471  00000+0  68783-3 0  9998", "line2": "2 33870  86.3735  53.7735 0022503 144.8377 275.5744 14.45900909882880"}}, "geometry": {"type": "Point", "coordinates": [57.523252330712566, 49.06783343919732]}}, {"type": "Feature", "properties": {"norad_id": 33881, "name": "IRIDIUM 33 DEB", "group": "iridium-33-debris", "lat": 3.53563211235842, "lon": 101.96669796155486, "alt_km": 736.0080241424503, "timestamp": "2025-12-24T05:51:19.993993+00:00", "meta": {"OBJECT_NAME": "IRIDIUM 33 DEB", "OBJECT_ID": "1997-051BA", "EPOCH": "2025-12-23T08:42:51.466752", "MEAN_MOTION": 14.56755437, "ECCENTRICITY": 0.00611335, "INCLINATION": 86.3867, "RA_OF_ASC_NODE": 102.1259, "ARG_OF_PERICENTER": 140.3632, "MEAN_ANOMALY": 287.1134, "EPHEMERIS_TYPE": 0, "CLASSIFICATION_TYPE": "U", "NORAD_CAT_ID": 33881, "ELEMENT_SET_NO": 999, "REV_AT_EPOCH": 87655, "BSTAR": 0.002190759, "MEAN_MOTION_DOT": 0.00010075, "MEAN_MOTION_DDOT": 0}, "tle": {"line1": "1 33881U 97051BA  25357.36309568  .00010075  00000+0  21908-2 0  9991", "line2": "2 33881  86.3867 102.1259 0061133 140.3632 287.1134 14.56755437876550"}}, "geometry": {"type": "Point", "coordinates": [101.96669796155486, 3.53563211235842]}}, {"type": "Feature", "properties": {"norad_id": 33884, "name": "IRIDIUM 33 DEB", "group": "iridium-33-debris", "lat": 84.83418295886406, "lon": 140.01389989468086, "alt_km": 635.5441163176729, "timestamp": "2025-12-24T05:51:19.994004+00:00", "meta": {"OBJECT_NAME": "IRIDIUM 33 DEB", "OBJECT_ID": "1997-051BD", "EPOCH": "2025-12-23T18:51:51.523200", "MEAN_MOTION": 14.77639332, "ECCENTRICITY": 0.0008924, "INCLINATION": 86.3696, "RA_OF_ASC_NODE": 4.8308, "ARG_OF_PERICENTER": 280.0291, "MEAN_ANOMALY": 259.06, "EPHEMERIS_TYPE": 0, "CLASSIFICATION_TYPE": "U", "NORAD_CAT_ID": 33884, "ELEMENT_SET_NO": 999, "REV_AT_EPOCH": 89010, "BSTAR": 0.0015648799, "MEAN_MOTION_DOT": 0.00011231, "MEAN_MOTION_DDOT": 0}, "tle": {"line1": "1 33884U 97051BD  25357.78601300  .00011231  00000+0  15649-2 0  9999", "line2": "2 33884  86.3696   4.8308 0008924 280.0291 259.0600 14.77639332890109"}}, "geometry": {"type": "Point", "coordinates": [140.01389989468086, 84.83418295886406]}}, {"type": "Feature", "properties": {"norad_id": 33886, "name": "IRIDIUM 33 DEB", "group": "iridium-33-debris", "lat": 75.6545281272338, "lon": -131.93708705729657, "alt_km": 765.6096259415408, "timestamp": "2025-12-24T05:51:19.994015+00:00", "meta": {"OBJECT_NAME": "IRIDIUM 33 DEB", "OBJECT_ID": "1997-051BF", "EPOCH": "2025-12-23T15:00:29.018304", "MEAN_MOTION": 14.36063924, "ECCENTRICITY": 0.00133134, "INCLINATION": 86.3821, "RA_OF_ASC_NODE": 62.6467, "ARG_OF_PERICENTER": 202.9626, "MEAN_ANOMALY": 304.7848, "EPHEMERIS_TYPE": 0, "CLASSIFICATION_TYPE": "U", "NORAD_CAT_ID": 33886, "ELEMENT_SET_NO": 999, "REV_AT_EPOCH": 88208, "BSTAR": 0.00017412291, "MEAN_MOTION_DOT": 5.26e-06, "MEAN_MOTION_DDOT": 0}, "tle": {"line1": "1 33886U 97051BF  25357.62533586  .00000526  00000+0  17412-3 0  9990", "line2": "2 33886  86.3821  62.6467 0013313 202.9626 304.7848 14.36063924882085"}}, "geometry": {"type": "Point", "coordinates": [-131.93708705729657, 75.6545281272338]}}, {"type": "Feature", "properties": {"norad_id": 33887, "name": "IRIDIUM 33 DEB", "group": "iridium-33-debris", "lat": 86.01475079202504, "lon": 66.52249488482026, "alt_km": 760.4618101479182, "timestamp": "2025-12-24T05:51:19.994041+00:00", "meta": {"OBJECT_NAME": "IRIDIUM 33 DEB", "OBJECT_ID": "1997-051BG", "EPOCH": "2025-12-23T22:52:59.298240", "MEAN_MOTION": 14.37230598, "ECCENTRICITY": 0.00056742, "INCLINATION": 86.3042, "RA_OF_ASC_NODE": 358.5593, "ARG_OF_PERICENTER": 183.3311, "MEAN_ANOMALY": 203.0566, "EPHEMERIS_TYPE": 0, "CLASSIFICATION_TYPE": "U", "NORAD_CAT_ID": 33887, "ELEMENT_SET_NO": 999, "REV_AT_EPOCH": 88326, "BSTAR": 0.0001396044, "MEAN_MOTION_DOT": 4.35e-06, "MEAN_MOTION_DDOT": 0}, "tle": {"line1": "1 33887U 97051BG  25357.95346410  .00000435  00000+0  13960-3 0  9998", "line2": "2 33887  86.3042 358.5593 0005674 183.3311 203.0566 14.37230598883265"}}, "geometry": {"type": "Point", "coordinates": [66.52249488482026, 86.01475079202504]}}, {"type": "Feature", "properties": {"norad_id": 33953, "name": "IRIDIUM 33 DEB", "group": "iridium-33-debris", "lat": -25.557183982492248, "lon": 47.05299550552682, "alt_km": 714.2562282868566, "timestamp": "2025-12-24T05:51:19.994054+00:00", "meta": {"OBJECT_NAME": "IRIDIUM 33 DEB", "OBJECT_ID": "1997-051BN", "EPOCH": "2025-12-22T04:44:25.619136", "MEAN_MOTION": 14.55406947, "ECCENTRICITY": 0.00178347, "INCLINATION": 86.3836, "RA_OF_ASC_NODE": 49.6744, "ARG_OF_PERICENTER": 73.9809, "MEAN_ANOMALY": 345.1929, "EPHEMERIS_TYPE": 0, "CLASSIFICATION_TYPE": "U", "NORAD_CAT_ID": 33953, "ELEMENT_SET_NO": 999, "REV_AT_EPOCH": 88441, "BSTAR": 0.0010994661, "MEAN_MOTION_DOT": 4.805e-05, "MEAN_MOTION_DDOT": 0}, "tle": {"line1": "1 33953U 97051BN  25356.19751874  .00004805  00000+0  10995-2 0  9990", "line2": "2 33953  86.3836  49.6744 0017834  73.9809 345.1929 14.55406947884415"}}, "geometry": {"type": "Point", "coordinates": [47.05299550552682, -25.557183982492248]}}, {"type": "Feature", "properties": {"norad_id": 33960, "name": "IRIDIUM 33 DEB", "group": "iridium-33-debris", "lat": -56.47269461441755, "lon": -81.58547092282251, "alt_km": 618.9919207800558, "timestamp": "2025-12-24T05:51:19.994065+00:00", "meta": {"OBJECT_NAME": "IRIDIUM 33 DEB", "OBJECT_ID": "1997-051BV", "EPOCH": "2025-12-22T20:25:56.627904", "MEAN_MOTION": 14.85668232, "ECCENTRICITY": 0.00072159, "INCLINATION": 86.2544, "RA_OF_ASC_NODE": 284.7457, "ARG_OF_PERICENTER": 44.6643, "MEAN_ANOMALY": 15.2245, "EPHEMERIS_TYPE": 0, "CLASSIFICATION_TYPE": "U", "NORAD_CAT_ID": 33960, "ELEMENT_SET_NO": 999, "REV_AT_EPOCH": 89017, "BSTAR": 0.0029026593, "MEAN_MOTION_DOT": 0.00025254, "MEAN_MOTION_DDOT": 0}, "tle": {"line1": "1 33960U 97051BV  25356.85134986  .00025254  00000+0  29027-2 0  9997", "line2": "2 33960  86.2544 284.7457 0007215  44.6643  15.2245 14.85668232890170"}}, "geometry": {"type": "Point", "coordinates": [-81.58547092282251, -56.47269461441755]}}, {"type": "Feature", "properties": {"norad_id": 33966, "name": "IRIDIUM 33 DEB", "group": "iridium-33-debris", "lat": -42.563100130542246, "lon": -135.5876082442017, "alt_km": 731.4731292297301, "timestamp": "2025-12-24T05:51:19.994076+00:00", "meta": {"OBJECT_NAME": "IRIDIUM 33 DEB", "OBJECT_ID": "1997-051CB", "EPOCH": "2025-12-23T21:22:23.107008", "MEAN_MOTION": 14.49635397, "ECCENTRICITY": 0.0008628, "INCLINATION": 86.391, "RA_OF_ASC_NODE": 41.2413, "ARG_OF_PERICENTER": 153.5533, "MEAN_ANOMALY": 25.6353, "EPHEMERIS_TYPE": 0, "CLASSIFICATION_TYPE": "U", "NORAD_CAT_ID": 33966, "ELEMENT_SET_NO": 999, "REV_AT_EPOCH": 88603, "BSTAR": 0.00047227149, "MEAN_MOTION_DOT": 1.835e-05, "MEAN_MOTION_DDOT": 0}, "tle": {"line1": "1 33966U 97051CB  25357.89054522  .00001835  00000+0  47227-3 0  9997", "line2": "2 33966  86.3910  41.2413 0008628 153.5533  25.6353 14.49635397886030"}}, "geometry": {"type": "Point", "coordinates": [-135.5876082442017, -42.563100130542246]}}, {"type": "Feature", "properties": {"norad_id": 34071, "name": "IRIDIUM 33 DEB", "group": "iridium-33-debris", "lat": -75.97175946760387, "lon": -1.996184911032341, "alt_km": 740.9339722446775, "timestamp": "2025-12-24T05:51:19.994088+00:00", "meta": {"OBJECT_NAME": "IRIDIUM 33 DEB", "OBJECT_ID": "1997-051CE", "EPOCH": "2025-12-23T23:34:51.259008", "MEAN_MOTION": 14.49512163, "ECCENTRICITY": 0.00098971, "INCLINATION": 86.3449, "RA_OF_ASC_NODE": 12.9408, "ARG_OF_PERICENTER": 77.6188, "MEAN_ANOMALY": 282.6123, "EPHEMERIS_TYPE": 0, "CLASSIFICATION_TYPE": "U", "NORAD_CAT_ID": 34071, "ELEMENT_SET_NO": 999, "REV_AT_EPOCH": 88497, "BSTAR": 0.00062081943, "MEAN_MOTION_DOT": 2.4e-05, "MEAN_MOTION_DDOT": 0}, "tle": {"line1": "1 34071U 97051CE  25357.98253772  .00002400  00000+0  62082-3 0  9998", "line2": "2 34071  86.3449  12.9408 0009897  77.6188 282.6123 14.49512163884971"}}, "geometry": {"type": "Point", "coordinates": [-1.996184911032341, -75.97175946760387]}}]}